{
"type": "FeatureCollection",
"name": "buildings_enriched",
"crs": { "type": "name", "properties": { "name": "urn:ogc:def:crs:OGC:1.3:CRS84" } },
"features": [
{ "type": "Feature", "properties": { "id": "A-001", "external_id": "A-001", "name": "أصل تدريبي 1", "review_status": "pending", "version": 1, "index_right": 0.0, "zone_id": "Z-A" }, "geometry": { "type": "Polygon", "coordinates": [ [ [ 35.2055, 31.893 ], [ 35.2067, 31.893 ], [ 35.2067, 31.8942 ], [ 35.2055, 31.8942 ], [ 35.2055, 31.893 ] ] ] } },
{ "type": "Feature", "properties": { "id": "A-002", "external_id": "A-002", "name": "أصل تدريبي 2", "review_status": "rejected", "version": 1, "index_right": 0.0, "zone_id": "Z-A" }, "geometry": { "type": "Polygon", "coordinates": [ [ [ 35.209, 31.894 ], [ 35.2102, 31.894 ], [ 35.2102, 31.8952 ], [ 35.209, 31.8952 ], [ 35.209, 31.894 ] ] ] } },
{ "type": "Feature", "properties": { "id": "A-003", "external_id": "A-003", "name": "أصل تدريبي 3", "review_status": "approved", "version": 1, "index_right": 0.0, "zone_id": "Z-A" }, "geometry": { "type": "Polygon", "coordinates": [ [ [ 35.2125, 31.892 ], [ 35.2137, 31.892 ], [ 35.2137, 31.8932 ], [ 35.2125, 31.8932 ], [ 35.2125, 31.892 ] ] ] } },
{ "type": "Feature", "properties": { "id": "A-004", "external_id": "A-004", "name": "أصل تدريبي 4", "review_status": "pending", "version": 1, "index_right": 0.0, "zone_id": "Z-A" }, "geometry": { "type": "Polygon", "coordinates": [ [ [ 35.216, 31.893 ], [ 35.2172, 31.893 ], [ 35.2172, 31.8942 ], [ 35.216, 31.8942 ], [ 35.216, 31.893 ] ] ] } },
{ "type": "Feature", "properties": { "id": "A-005", "external_id": "A-005", "name": "أصل تدريبي 5", "review_status": "rejected", "version": 1, "index_right": null, "zone_id": null }, "geometry": { "type": "Polygon", "coordinates": [ [ [ 35.2195, 31.894 ], [ 35.2207, 31.894 ], [ 35.2207, 31.8952 ], [ 35.2195, 31.8952 ], [ 35.2195, 31.894 ] ] ] } },
{ "type": "Feature", "properties": { "id": "A-006", "external_id": "A-006", "name": "أصل تدريبي 6", "review_status": "approved", "version": 1, "index_right": 1.0, "zone_id": "Z-B" }, "geometry": { "type": "Polygon", "coordinates": [ [ [ 35.223, 31.892 ], [ 35.2242, 31.892 ], [ 35.2242, 31.8932 ], [ 35.223, 31.8932 ], [ 35.223, 31.892 ] ] ] } },
{ "type": "Feature", "properties": { "id": "A-007", "external_id": "A-007", "name": "أصل تدريبي 7", "review_status": "pending", "version": 1, "index_right": 1.0, "zone_id": "Z-B" }, "geometry": { "type": "Polygon", "coordinates": [ [ [ 35.2265, 31.893 ], [ 35.2277, 31.893 ], [ 35.2277, 31.8942 ], [ 35.2265, 31.8942 ], [ 35.2265, 31.893 ] ] ] } },
{ "type": "Feature", "properties": { "id": "A-008", "external_id": "A-008", "name": "أصل تدريبي 8", "review_status": "rejected", "version": 1, "index_right": 1.0, "zone_id": "Z-B" }, "geometry": { "type": "Polygon", "coordinates": [ [ [ 35.23, 31.894 ], [ 35.2312, 31.894 ], [ 35.2312, 31.8952 ], [ 35.23, 31.8952 ], [ 35.23, 31.894 ] ] ] } },
{ "type": "Feature", "properties": { "id": "A-009", "external_id": "A-009", "name": "أصل تدريبي 9", "review_status": "approved", "version": 1, "index_right": 1.0, "zone_id": "Z-B" }, "geometry": { "type": "Polygon", "coordinates": [ [ [ 35.2335, 31.892 ], [ 35.2347, 31.892 ], [ 35.2347, 31.8932 ], [ 35.2335, 31.8932 ], [ 35.2335, 31.892 ] ] ] } }
]
}
